NORAD_CAT_ID,OBJECT_NAME,OBJECT_TYPE,EPOCH,MEAN_MOTION,ECCENTRICITY,INCLINATION,RA_OF_ASC_NODE,ARG_OF_PERICENTER,MEAN_ANOMALY,BSTAR,MEAN_MOTION_DOT,MEAN_MOTION_DDOT,TLE_LINE0,TLE_LINE1,TLE_LINE2,SEMIMAJOR_AXIS,PERIOD,APOGEE,PERIGEE,DECAYED
52490.0,STARLINK-3914,PAYLOAD,2023-02-11 17:18:17,15.0884865,0.0001166,53.2163,45.8401,74.2316,285.8805,0.00019922,2.885e-05,0.0,0 STARLINK-3914,1 52490U 22049AR  23042.72103164  .00002885  00000-0  19922-3 0  9991,2 52490  53.2163  45.8401 0001166  74.2316 285.8805 15.08848650 43010,6917.854,95.437,540.526,538.912,0.0
52490.0,STARLINK-3914,PAYLOAD,2023-02-11 23:39:50,15.0884311,0.0001545,53.217,44.6537,82.7295,277.3872,4.7282e-05,4.65e-06,0.0,0 STARLINK-3914,1 52490U 22049AR  23042.98599703  .00000465  00000-0  47282-4 0  9990,2 52490  53.2170  44.6537 0001545  82.7295 277.3872 15.08843110 43214,6917.871,95.437,540.805,538.667,0.0
52490.0,STARLINK-3914,PAYLOAD,2023-02-12 09:12:08,15.08840847,0.0001348,53.2148,42.8679,78.3169,281.7974,-2.1643e-05,-6.32e-06,0.0,0 STARLINK-3914,1 52490U 22049AR  23043.38343430 -.00000632  00000-0 -21643-4 0  9990,2 52490  53.2148  42.8679 0001348  78.3169 281.7974 15.08840847 43113,6917.878,95.438,540.675,538.81,0.0
52490.0,STARLINK-3914,PAYLOAD,2023-02-13 05:52:09,15.088439,0.0001187,53.2174,39.0005,107.3357,252.7765,0.00012165,1.649e-05,0.0,0 STARLINK-3914,1 52490U 22049AR  23044.24455535  .00001649  00000-0  12165-3 0  9991,2 52490  53.2174  39.0005 0001187 107.3357 252.7765 15.08843900 43407,6917.868,95.437,540.555,538.912,0.0
52490.0,STARLINK-3914,PAYLOAD,2023-02-13 09:02:55,15.08852934,0.0001282,53.2157,38.4073,81.772,278.3418,0.00026362,3.912e-05,0.0,0 STARLINK-3914,1 52490U 22049AR  23044.37703137  .00003912  00000-0  26362-3 0  9998,2 52490  53.2157  38.4073 0001282  81.7720 278.3418 15.08852934 43429,6917.841,95.437,540.593,538.819,0.0
52490.0,STARLINK-3914,PAYLOAD,2023-02-13 16:59:52,15.08833645,0.0001944,53.2169,36.9213,74.7685,285.3522,-3.3043e-05,-8.14e-06,0.0,0 STARLINK-3914,1 52490U 22049AR  23044.70824342 -.00000814  00000-0 -33043-4 0  9992,2 52490  53.2169  36.9213 0001944  74.7685 285.3522 15.08833645 43475,6917.9,95.438,541.11,538.42,0.0
52490.0,STARLINK-3914,PAYLOAD,2023-02-14 08:53:43,15.08849442,0.0001171,53.2149,33.9444,91.0625,269.0501,0.00037182,5.636e-05,0.0,0 STARLINK-3914,1 52490U 22049AR  23045.37063706  .00005636  00000-0  37182-3 0  9997,2 52490  53.2149  33.9444 0001171  91.0625 269.0501 15.08849442 43573,6917.852,95.437,540.527,538.906,0.0
52490.0,STARLINK-3914,PAYLOAD,2023-02-15 05:33:44,15.08845297,0.0001221,53.2158,30.0805,77.629,282.4839,0.00023117,3.394e-05,0.0,0 STARLINK-3914,1 52490U 22049AR  23046.23176083  .00003394  00000-0  23117-3 0  9998,2 52490  53.2158  30.0805 0001221  77.6290 282.4839 15.08845297 43708,6917.864,95.437,540.574,538.885,0.0
52490.0,STARLINK-3914,PAYLOAD,2023-02-15 08:44:30,15.08855428,0.0001293,53.2163,29.4863,80.6953,279.4185,0.00046097,7.059e-05,0.0,0 STARLINK-3914,1 52490U 22049AR  23046.36423761  .00007059  00000-0  46097-3 0  9994,2 52490  53.2163  29.4863 0001293  80.6953 279.4185 15.08855428 43560,6917.833,95.437,540.593,538.804,0.0
52490.0,STARLINK-3914,PAYLOAD,2023-02-16 03:49:07,15.08862389,0.0001204,53.2168,25.9163,94.9211,265.1918,0.00052917,8.149e-05,0.0,0 STARLINK-3914,1 52490U 22049AR  23047.15911183  .00008149  00000-0  52917-3 0  9991,2 52490  53.2168  25.9163 0001204  94.9211 265.1918 15.08862389 43847,6917.812,95.436,540.51,538.844,0.0
52490.0,STARLINK-3914,PAYLOAD,2023-02-16 08:35:15,15.08883823,9.93e-05,53.2157,25.0245,85.0541,275.0564,0.00095423,0.00014949,0.0,0 STARLINK-3914,1 52490U 22049AR  23047.35782351  .00014949  00000-0  95423-3 0  9990,2 52490  53.2157  25.0245 0000993  85.0541 275.0564 15.08883823 43717,6917.746,95.435,540.298,538.925,0.0
52490.0,STARLINK-3914,PAYLOAD,2023-02-16 14:56:49,15.08835054,0.0001923,53.217,23.8347,65.765,294.3543,-0.000115,-2.118e-05,0.0,0 STARLINK-3914,1 52490U 22049AR  23047.62279978 -.00002118  00000-0 -11500-3 0  9997,2 52490  53.2170  23.8347 0001923  65.7650 294.3543 15.08835054 43917,6917.896,95.438,541.091,538.43,0.0
52490.0,STARLINK-3914,PAYLOAD,2023-02-16 22:53:46,15.08814349,7.76e-05,53.2168,22.3479,54.894,305.2124,-0.00064656,-0.00010555,0.0,0 STARLINK-3914,1 52490U 22049AR  23047.95400488 -.00010555  00000-0 -64656-3 0  9999,2 52490  53.2168  22.3479 0000776  54.8940 305.2124 15.08814349 43966,6917.959,95.439,540.361,539.287,0.0
52490.0,STARLINK-3914,PAYLOAD,2023-02-17 06:50:41,15.08825943,7e-05,53.2172,20.8621,86.7162,273.391,-0.00034307,-5.741e-05,0.0,0 STARLINK-3914,1 52490U 22049AR  23048.28520200 -.00005741  00000-0 -34307-3 0  9992,2 52490  53.2172  20.8621 0000700  86.7162 273.3910 15.08825943 44017,6917.923,95.438,540.273,539.304,0.0
52490.0,STARLINK-3914,PAYLOAD,2023-02-17 10:01:27,15.08831471,6.77e-05,53.2166,20.2663,62.5949,297.5112,0.00044369,6.779e-05,0.0,0 STARLINK-3914,1 52490U 22049AR  23048.41768254  .00006779  00000-0  44369-3 0  9999,2 52490  53.2166  20.2663 0000677  62.5949 297.5112 15.08831471 43876,6917.906,95.438,540.24,539.303,0.0
52490.0,STARLINK-3914,PAYLOAD,2023-02-17 14:47:37,15.08811109,3.72e-05,53.217,19.3746,49.0174,311.085,0.00041452,6.31e-05,0.0,0 STARLINK-3914,1 52490U 22049AR  23048.61641133  .00006310  00000-0  41452-3 0  9998,2 52490  53.2170  19.3746 0000372  49.0174 311.0850 15.08811109 44063,6917.969,95.439,540.091,539.576,0.0
52490.0,STARLINK-3914,PAYLOAD,2023-02-18 01:55:20,15.08830041,6.5e-05,53.2166,17.2923,65.4177,294.6882,0.0011873,0.00018653,0.0,0 STARLINK-3914,1 52490U 22049AR  23049.08009747  .00018653  00000-0  11873-2 0  9995,2 52490  53.2166  17.2923 0000650  65.4177 294.6882 15.08830041 44131,6917.911,95.438,540.225,539.326,0.0
52490.0,STARLINK-3914,PAYLOAD,2023-02-18 08:16:52,15.08847943,6.41e-05,53.2163,16.1029,62.435,297.6707,0.0019125,0.00030287,0.0,0 STARLINK-3914,1 52490U 22049AR  23049.34505741  .00030287  00000-0  19125-2 0  9994,2 52490  53.2163  16.1029 0000641  62.4350 297.6707 15.08847943 44018,6917.856,95.437,540.165,539.278,0.0
52490.0,STARLINK-3914,PAYLOAD,2023-02-19 14:29:11,15.08848928,9.86e-05,53.2165,10.453,78.5817,281.5286,-4.31e-05,-9.74e-06,0.0,0 STARLINK-3914,1 52490U 22049AR  23050.60360632 -.00000974  00000-0 -43100-4 0  9997,2 52490  53.2165  10.4530 0000986  78.5817 281.5286 15.08848928 44368,6917.853,95.437,540.4,539.036,0.0
52490.0,STARLINK-3914,PAYLOAD,2023-02-20 03:12:16,15.08852496,9.57e-05,53.2161,8.075,83.7146,276.3955,0.0012374,0.00019467,0.0,0 STARLINK-3914,1 52490U 22049AR  23051.13352361  .00019467  00000-0  12374-2 0  9998,2 52490  53.2161   8.0750 0000957  83.7146 276.3955 15.08852496 44283,6917.842,95.437,540.369,539.045,0.0
52490.0,STARLINK-3914,PAYLOAD,2023-02-20 23:52:17,15.08849788,0.0001058,53.2159,4.2088,105.9564,254.1545,0.0015308,0.00024165,0.0,0 STARLINK-3914,1 52490U 22049AR  23051.99464486  .00024165  00000-0  15308-2 0  9995,2 52490  53.2159   4.2088 0001058 105.9564 254.1545 15.08849788 44577,6917.85,95.437,540.447,538.984,0.0
52490.0,STARLINK-3914,PAYLOAD,2023-02-21 14:10:45,15.0885213,0.000139,53.2159,1.5332,81.6968,278.4182,0.0014428,0.00022756,0.0,0 STARLINK-3914,1 52490U 22049AR  23052.59080628  .00022756  00000-0  14428-2 0  9990,2 52490  53.2159   1.5332 0001390  81.6968 278.4182 15.08852130 44667,6917.843,95.437,540.67,538.747,0.0
52490.0,STARLINK-3914,PAYLOAD,2023-02-21 20:32:18,15.08847772,0.0001619,53.2181,0.3422,98.2755,261.8421,0.0009729,0.00015233,0.0,0 STARLINK-3914,1 52490U 22049AR  23052.85576719  .00015233  00000-0  97290-3 0  9991,2 52490  53.2181   0.3422 0001619  98.2755 261.8421 15.08847772 44546,6917.857,95.437,540.842,538.602,0.0
52490.0,STARLINK-3914,PAYLOAD,2023-02-22 02:53:50,15.08849579,0.0001245,53.2178,359.1534,94.7775,265.3359,0.00037384,5.668e-05,0.0,0 STARLINK-3914,1 52490U 22049AR  23053.12072405  .00005668  00000-0  37384-3 0  9994,2 52490  53.2178 359.1534 0001245  94.7775 265.3359 15.08849579 44747,6917.851,95.437,540.577,538.855,0.0
52490.0,STARLINK-3914,PAYLOAD,2023-02-22 20:23:05,15.08835442,0.0001163,53.2166,355.8817,87.9472,272.1654,0.00012283,1.667e-05,0.0,0 STARLINK-3914,1 52490U 22049AR  23053.84937232  .00001667  00000-0  12283-3 0  9997,2 52490  53.2166 355.8817 0001163  87.9472 272.1654 15.08835442 44690,6917.894,95.438,540.564,538.955,0.0
52490.0,STARLINK-3914,PAYLOAD,2023-02-23 05:55:24,15.08835532,0.0001275,53.2165,354.0964,90.2092,269.9046,0.00014478,2.017e-05,0.0,0 STARLINK-3914,1 52490U 22049AR  23054.24681416  .00002017  00000-0  14478-3 0  9990,2 52490  53.2165 354.0964 0001275  90.2092 269.9046 15.08835532 44916,6917.894,95.438,540.641,538.877,0.0
52490.0,STARLINK-3914,PAYLOAD,2023-02-23 18:38:29,15.0884236,0.0001295,53.2167,351.718,88.5248,271.5892,0.00023657,3.479e-05,0.0,0 STARLINK-3914,1 52490U 22049AR  23054.77673330  .00003479  00000-0  23657-3 0  9996,2 52490  53.2167 351.7180 0001295  88.5248 271.5892 15.08842360 44833,6917.873,95.437,540.634,538.842,0.0
52490.0,STARLINK-3914,PAYLOAD,2023-02-23 23:24:38,15.08858502,0.0001508,53.2173,350.8275,97.2314,262.885,0.00063668,9.864e-05,0.0,0 STARLINK-3914,1 52490U 22049AR  23054.97544708  .00009864  00000-0  63668-3 0  9994,2 52490  53.2173 350.8275 0001508  97.2314 262.8850 15.08858502 45027,6917.824,95.436,540.732,538.646,0.0
52490.0,STARLINK-3914,PAYLOAD,2023-02-24 07:21:33,15.08889898,0.0001407,53.2163,349.3404,87.2405,272.8748,0.0015596,0.00024654,0.0,0 STARLINK-3914,1 52490U 22049AR  23055.30663917  .00024654  00000-0  15596-2 0  9996,2 52490  53.2163 349.3404 0001407  87.2405 272.8748 15.08889898 45075,6917.728,95.434,540.566,538.62,0.0
52490.0,STARLINK-3914,PAYLOAD,2023-02-24 21:40:02,15.0883494,0.000192,53.2159,346.6643,97.3707,262.7503,0.0001639,2.321e-05,0.0,0 STARLINK-3914,1 52490U 22049AR  23055.90280833  .00002321  00000-0  16390-3 0  9995,2 52490  53.2159 346.6643 0001920  97.3707 262.7503 15.08834940 45000,6917.896,95.438,541.089,538.433,0.0
